[{"OBJECT_NAME":"JILIN-1 GAOFEN 3D27","OBJECT_ID":"2022-048B","EPOCH":"2026-03-04T03:50:00.036960","MEAN_MOTION":15.5780524,"ECCENTRICITY":0.0004852,"INCLINATION":97.5643,"RA_OF_ASC_NODE":169.236,"ARG_OF_PERICENTER":79.189,"MEAN_ANOMALY":280.9911,"EPHEMERIS_TYPE":0,"CLASSIFICATION_TYPE":"U","NORAD_CAT_ID":52444,"ELEMENT_SET_NO":999,"REV_AT_EPOCH":21304,"BSTAR":0.0012395,"MEAN_MOTION_DOT":0.00093025,"MEAN_MOTION_DDOT":0},{"OBJECT_NAME":"JILIN-1 GAOFEN 3D28","OBJECT_ID":"2022-048C","EPOCH":"2026-03-04T03:48:05.563872","MEAN_MOTION":15.59032947,"ECCENTRICITY":0.0003654,"INCLINATION":97.5586,"RA_OF_ASC_NODE":169.1533,"ARG_OF_PERICENTER":105.4091,"MEAN_ANOMALY":254.7568,"EPHEMERIS_TYPE":0,"CLASSIFICATION_TYPE":"U","NORAD_CAT_ID":52445,"ELEMENT_SET_NO":999,"REV_AT_EPOCH":21307,"BSTAR":0.0012678,"MEAN_MOTION_DOT":0.00099694,"MEAN_MOTION_DDOT":0},{"OBJECT_NAME":"VIGORIDE-3","OBJECT_ID":"2022-057AE","EPOCH":"2026-03-03T19:45:42.768288","MEAN_MOTION":15.25988091,"ECCENTRICITY":0.0009619,"INCLINATION":97.6418,"RA_OF_ASC_NODE":200.2116,"ARG_OF_PERICENTER":130.1635,"MEAN_ANOMALY":230.0446,"EPHEMERIS_TYPE":0,"CLASSIFICATION_TYPE":"U","NORAD_CAT_ID":52760,"ELEMENT_SET_NO":999,"REV_AT_EPOCH":20908,"BSTAR":0.00038042,"MEAN_MOTION_DOT":9.718e-5,"MEAN_MOTION_DDOT":0},{"OBJECT_NAME":"ION SCV-006","OBJECT_ID":"2022-057AF","EPOCH":"2026-03-03T09:37:48.211680","MEAN_MOTION":15.42654279,"ECCENTRICITY":0.00195448,"INCLINATION":97.5928,"RA_OF_ASC_NODE":206.2511,"ARG_OF_PERICENTER":135.5569,"MEAN_ANOMALY":224.725,"EPHEMERIS_TYPE":0,"CLASSIFICATION_TYPE":"U","NORAD_CAT_ID":52761,"ELEMENT_SET_NO":999,"REV_AT_EPOCH":20979,"BSTAR":0.0004065956,"MEAN_MOTION_DOT":0.00017761,"MEAN_MOTION_DDOT":0},{"OBJECT_NAME":"SHERPA-AC1","OBJECT_ID":"2022-057AH","EPOCH":"2026-03-03T08:42:22.365504","MEAN_MOTION":15.34513548,"ECCENTRICITY":0.00091153,"INCLINATION":97.6507,"RA_OF_ASC_NODE":207.4129,"ARG_OF_PERICENTER":107.978,"MEAN_ANOMALY":252.2457,"EPHEMERIS_TYPE":0,"CLASSIFICATION_TYPE":"U","NORAD_CAT_ID":52763,"ELEMENT_SET_NO":999,"REV_AT_EPOCH":20946,"BSTAR":0.00033501559,"MEAN_MOTION_DOT":0.00011135,"MEAN_MOTION_DDOT":0},{"OBJECT_NAME":"OMNI-L2","OBJECT_ID":"2022-057AR","EPOCH":"2026-03-04T03:28:01.658496","MEAN_MOTION":14.81051536,"ECCENTRICITY":0.0005535,"INCLINATION":97.4827,"RA_OF_ASC_NODE":132.5316,"ARG_OF_PERICENTER":317.6485,"MEAN_ANOMALY":42.43,"EPHEMERIS_TYPE":0,"CLASSIFICATION_TYPE":"U","NORAD_CAT_ID":52771,"ELEMENT_SET_NO":999,"REV_AT_EPOCH":20484,"BSTAR":0.00029763,"MEAN_MOTION_DOT":2.261e-5,"MEAN_MOTION_DDOT":0},{"OBJECT_NAME":"STEP CUBE LAB-II","OBJECT_ID":"2022-065D","EPOCH":"2026-03-04T02:22:21.595584","MEAN_MOTION":14.6310106,"ECCENTRICITY":0.0008554,"INCLINATION":98.2031,"RA_OF_ASC_NODE":207.4331,"ARG_OF_PERICENTER":2.6325,"MEAN_ANOMALY":357.492,"EPHEMERIS_TYPE":0,"CLASSIFICATION_TYPE":"U","NORAD_CAT_ID":52897,"ELEMENT_SET_NO":999,"REV_AT_EPOCH":19613,"BSTAR":0.00024227,"MEAN_MOTION_DOT":1.197e-5,"MEAN_MOTION_DDOT":0},{"OBJECT_NAME":"RANDEV","OBJECT_ID":"2022-065E","EPOCH":"2026-03-04T04:41:57.806880","MEAN_MOTION":14.63477332,"ECCENTRICITY":0.0007888,"INCLINATION":98.2016,"RA_OF_ASC_NODE":207.8347,"ARG_OF_PERICENTER":3.3915,"MEAN_ANOMALY":356.7339,"EPHEMERIS_TYPE":0,"CLASSIFICATION_TYPE":"U","NORAD_CAT_ID":52898,"ELEMENT_SET_NO":999,"REV_AT_EPOCH":19589,"BSTAR":0.00026497,"MEAN_MOTION_DOT":1.325e-5,"MEAN_MOTION_DDOT":0},{"OBJECT_NAME":"SNUGLITE-II","OBJECT_ID":"2022-065F","EPOCH":"2026-03-03T09:13:22.497024","MEAN_MOTION":14.64108686,"ECCENTRICITY":0.00073431,"INCLINATION":98.2017,"RA_OF_ASC_NODE":207.5145,"ARG_OF_PERICENTER":5.3198,"MEAN_ANOMALY":354.8081,"EPHEMERIS_TYPE":0,"CLASSIFICATION_TYPE":"U","NORAD_CAT_ID":52899,"ELEMENT_SET_NO":999,"REV_AT_EPOCH":19551,"BSTAR":0.00031602815,"MEAN_MOTION_DOT":1.612e-5,"MEAN_MOTION_DDOT":0},{"OBJECT_NAME":"MIMAN","OBJECT_ID":"2022-065G","EPOCH":"2026-03-03T08:39:27.114336","MEAN_MOTION":14.61698052,"ECCENTRICITY":0.00075612,"INCLINATION":98.207,"RA_OF_ASC_NODE":205.4846,"ARG_OF_PERICENTER":6.5859,"MEAN_ANOMALY":353.544,"EPHEMERIS_TYPE":0,"CLASSIFICATION_TYPE":"U","NORAD_CAT_ID":52900,"ELEMENT_SET_NO":999,"REV_AT_EPOCH":19498,"BSTAR":0.00020558337,"MEAN_MOTION_DOT":9.77e-6,"MEAN_MOTION_DDOT":0},{"OBJECT_NAME":"STARLINK-4362","OBJECT_ID":"2022-077A","EPOCH":"2026-03-04T01:03:22.724064","MEAN_MOTION":15.0130005,"ECCENTRICITY":0.0002668,"INCLINATION":97.6032,"RA_OF_ASC_NODE":244.6966,"ARG_OF_PERICENTER":66.9592,"MEAN_ANOMALY":293.1913,"EPHEMERIS_TYPE":0,"CLASSIFICATION_TYPE":"U","NORAD_CAT_ID":53043,"ELEMENT_SET_NO":999,"REV_AT_EPOCH":20007,"BSTAR":-0.00062626,"MEAN_MOTION_DOT":-8.102e-5,"MEAN_MOTION_DDOT":0},{"OBJECT_NAME":"LARES-2","OBJECT_ID":"2022-080A","EPOCH":"2026-02-20T17:16:46.407648","MEAN_MOTION":6.38965205,"ECCENTRICITY":0.00051588,"INCLINATION":70.178,"RA_OF_ASC_NODE":345.2672,"ARG_OF_PERICENTER":0.959,"MEAN_ANOMALY":359.1035,"EPHEMERIS_TYPE":0,"CLASSIFICATION_TYPE":"U","NORAD_CAT_ID":53105,"ELEMENT_SET_NO":999,"REV_AT_EPOCH":8422,"BSTAR":0,"MEAN_MOTION_DOT":-1.9e-7,"MEAN_MOTION_DDOT":0},{"OBJECT_NAME":"GREENCUBE (IO-117)","OBJECT_ID":"2022-080E","EPOCH":"2026-03-02T17:29:44.105280","MEAN_MOTION":6.42583122,"ECCENTRICITY":0.00090439,"INCLINATION":70.1617,"RA_OF_ASC_NODE":335.2737,"ARG_OF_PERICENTER":313.3588,"MEAN_ANOMALY":46.6318,"EPHEMERIS_TYPE":0,"CLASSIFICATION_TYPE":"U","NORAD_CAT_ID":53109,"ELEMENT_SET_NO":999,"REV_AT_EPOCH":8522,"BSTAR":0,"MEAN_MOTION_DOT":-3.0e-8,"MEAN_MOTION_DDOT":0},{"OBJECT_NAME":"STARLINK-4410","OBJECT_ID":"2022-084R","EPOCH":"2026-03-04T03:56:08.397312","MEAN_MOTION":15.01262508,"ECCENTRICITY":0.0001819,"INCLINATION":97.601,"RA_OF_ASC_NODE":124.7999,"ARG_OF_PERICENTER":61.747,"MEAN_ANOMALY":298.3938,"EPHEMERIS_TYPE":0,"CLASSIFICATION_TYPE":"U","NORAD_CAT_ID":53204,"ELEMENT_SET_NO":999,"REV_AT_EPOCH":19914,"BSTAR":-1.0936e-5,"MEAN_MOTION_DOT":-1.99e-6,"MEAN_MOTION_DDOT":0},{"OBJECT_NAME":"COSMOS 2558","OBJECT_ID":"2022-089A","EPOCH":"2026-03-04T03:00:05.216832","MEAN_MOTION":15.58916243,"ECCENTRICITY":0.000161,"INCLINATION":97.226,"RA_OF_ASC_NODE":164.3123,"ARG_OF_PERICENTER":73.2513,"MEAN_ANOMALY":286.892,"EPHEMERIS_TYPE":0,"CLASSIFICATION_TYPE":"U","NORAD_CAT_ID":53323,"ELEMENT_SET_NO":999,"REV_AT_EPOCH":20138,"BSTAR":0.0010599,"MEAN_MOTION_DOT":0.00082766,"MEAN_MOTION_DDOT":0},{"OBJECT_NAME":"TECMS","OBJECT_ID":"2022-090A","EPOCH":"2026-03-04T04:29:00.295008","MEAN_MOTION":15.21453697,"ECCENTRICITY":0.000311,"INCLINATION":97.3246,"RA_OF_ASC_NODE":134.2157,"ARG_OF_PERICENTER":213.0702,"MEAN_ANOMALY":147.034,"EPHEMERIS_TYPE":0,"CLASSIFICATION_TYPE":"U","NORAD_CAT_ID":53346,"ELEMENT_SET_NO":999,"REV_AT_EPOCH":19884,"BSTAR":0.00028077,"MEAN_MOTION_DOT":6.242e-5,"MEAN_MOTION_DDOT":0},{"OBJECT_NAME":"DONGPO 04","OBJECT_ID":"2022-098H","EPOCH":"2026-03-04T05:15:58.860864","MEAN_MOTION":15.78032727,"ECCENTRICITY":0.000208,"INCLINATION":97.5491,"RA_OF_ASC_NODE":194.3237,"ARG_OF_PERICENTER":266.3603,"MEAN_ANOMALY":93.7425,"EPHEMERIS_TYPE":0,"CLASSIFICATION_TYPE":"U","NORAD_CAT_ID":53451,"ELEMENT_SET_NO":999,"REV_AT_EPOCH":19871,"BSTAR":0.0013321,"MEAN_MOTION_DOT":0.00231107,"MEAN_MOTION_DDOT":0}]
