JILIN-1 GAOFEN 3D27     
1 52444U 22048B   26063.15972265  .00093025  00000+0  12395-2 0  9999
2 52444  97.5643 169.2360 0004852  79.1890 280.9911 15.57805240213042
JILIN-1 GAOFEN 3D28     
1 52445U 22048C   26063.15839773  .00099694  00000+0  12678-2 0  9998
2 52445  97.5586 169.1533 0003654 105.4091 254.7568 15.59032947213073
VIGORIDE-3              
1 52760U 22057AE  26062.82341167  .00009718  00000+0  38042-3 0  9998
2 52760  97.6418 200.2116 0009619 130.1635 230.0446 15.25988091209089
ION SCV-006             
1 52761U 22057AF  26062.40125245  .00017761  00000+0  40660-3 0  9996
2 52761  97.5928 206.2511 0019544 135.5569 224.7250 15.42654279209791
SHERPA-AC1              
1 52763U 22057AH  26062.36275886  .00011135  00000+0  33502-3 0  9996
2 52763  97.6507 207.4129 0009115 107.9780 252.2457 15.34513548209469
OMNI-L2                 
1 52771U 22057AR  26063.14446364  .00002261  00000+0  29763-3 0  9997
2 52771  97.4827 132.5316 0005535 317.6485  42.4300 14.81051536204849
STEP CUBE LAB-II        
1 52897U 22065D   26063.09886106  .00001197  00000+0  24227-3 0  9998
2 52897  98.2031 207.4331 0008554   2.6325 357.4920 14.63101060196138
RANDEV                  
1 52898U 22065E   26063.19580795  .00001325  00000+0  26497-3 0  9999
2 52898  98.2016 207.8347 0007888   3.3915 356.7339 14.63477332195891
SNUGLITE-II             
1 52899U 22065F   26062.38428816  .00001612  00000+0  31603-3 0  9999
2 52899  98.2017 207.5145 0007343   5.3198 354.8081 14.64108686195513
MIMAN                   
1 52900U 22065G   26062.36073049  .00000977  00000+0  20558-3 0  9994
2 52900  98.2070 205.4846 0007561   6.5859 353.5440 14.61698052194982
STARLINK-4362           
1 53043U 22077A   26063.04401301 -.00008102  00000+0 -62626-3 0  9990
2 53043  97.6032 244.6966 0002668  66.9592 293.1913 15.01300050200072
LARES-2                 
1 53105U 22080A   26051.71998157 -.00000019  00000+0  00000+0 0  9996
2 53105  70.1780 345.2672 0005158   0.9590 359.1035  6.38965205 84226
GREENCUBE (IO-117)      
1 53109U 22080E   26061.72898270 -.00000003  00000+0  00000+0 0  9990
2 53109  70.1617 335.2737 0009043 313.3588  46.6318  6.42583122 85227
STARLINK-4410           
1 53204U 22084R   26063.16398608 -.00000199  00000+0 -10936-4 0  9991
2 53204  97.6010 124.7999 0001819  61.7470 298.3938 15.01262508199140
COSMOS 2558             
1 53323U 22089A   26063.12506038  .00082766  00000+0  10599-2 0  9993
2 53323  97.2260 164.3123 0001610  73.2513 286.8920 15.58916243201386
TECMS                   
1 53346U 22090A   26063.18680897  .00006242  00000+0  28077-3 0  9998
2 53346  97.3246 134.2157 0003110 213.0702 147.0340 15.21453697198849
DONGPO 04               
1 53451U 22098H   26063.21943126  .00231107  00000+0  13321-2 0  9999
2 53451  97.5491 194.3237 0002080 266.3603  93.7425 15.78032727198718
